{"type": "FeatureCollection", "features": [ {"type": "Feature", "properties": {"norad_id": 66825, "name": "STARLINK-35476", "group": "last-30-days", "lat": -40.980616447830364, "lon": 175.89885025273387, "alt_km": 344.58127277315543, "timestamp": "2025-12-14T07:33:18.188458+00:00", "meta": {"OBJECT_NAME": "STARLINK-35476", "OBJECT_ID": "2025-280E", "EPOCH": "2025-12-13T16:30:56.327616", "MEAN_MOTION": 15.7706754, "ECCENTRICITY": 0.00046688, "INCLINATION": 69.9934, "RA_OF_ASC_NODE": 196.1307, "ARG_OF_PERICENTER": 280.3772, "MEAN_ANOMALY": 79.6901, "EPHEMERIS_TYPE": 0, "CLASSIFICATION_TYPE": "U", "NORAD_CAT_ID": 66825, "ELEMENT_SET_NO": 999, "REV_AT_EPOCH": 307, "BSTAR": -0.0039943465, "MEAN_MOTION_DOT": -0.00608447, "MEAN_MOTION_DDOT": 0}, "tle": {"line1": "1 66825U 25280E   25347.68815194 -.00608447  00000+0 -39943-2 0  9997", "line2": "2 66825  69.9934 196.1307 0004668 280.3772  79.6901 15.77067540  3073"}}, "geometry": {"type": "Point", "coordinates": [175.89885025273387, -40.980616447830364]}}, {"type": "Feature", "properties": {"norad_id": 66826, "name": "STARLINK-35898", "group": "last-30-days", "lat": -39.2857264239719, "lon": 177.00628572145487, "alt_km": 349.0958545651247, "timestamp": "2025-12-14T07:33:18.188469+00:00", "meta": {"OBJECT_NAME": "STARLINK-35898", "OBJECT_ID": "2025-280F", "EPOCH": "2025-12-13T16:30:26.287200", "MEAN_MOTION": 15.77090569, "ECCENTRICITY": 0.00054727, "INCLINATION": 69.9928, "RA_OF_ASC_NODE": 196.1291, "ARG_OF_PERICENTER": 202.5388, "MEAN_ANOMALY": 157.5572, "EPHEMERIS_TYPE": 0, "CLASSIFICATION_TYPE": "U", "NORAD_CAT_ID": 66826, "ELEMENT_SET_NO": 999, "REV_AT_EPOCH": 307, "BSTAR": -0.0047798581, "MEAN_MOTION_DOT": -0.0071989, "MEAN_MOTION_DDOT": 0}, "tle": {"line1": "1 66826U 25280F   25347.68780425 -.00719890  00000+0 -47799-2 0  9999", "line2": "2 66826  69.9928 196.1291 0005472 202.5388 157.5572 15.77090569  3079"}}, "geometry": {"type": "Point", "coordinates": [177.00628572145487, -39.2857264239719]}}, {"type": "Feature", "properties": {"norad_id": 66827, "name": "STARLINK-35959", "group": "last-30-days", "lat": -37.49953284109262, "lon": 178.1064330415343, "alt_km": 343.32546952101984, "timestamp": "2025-12-14T07:33:18.188479+00:00", "meta": {"OBJECT_NAME": "STARLINK-35959", "OBJECT_ID": "2025-280G", "EPOCH": "2025-12-13T16:29:57.289632", "MEAN_MOTION": 15.77058622, "ECCENTRICITY": 0.00061494, "INCLINATION": 69.9897, "RA_OF_ASC_NODE": 196.1265, "ARG_OF_PERICENTER": 289.4107, "MEAN_ANOMALY": 70.6427, "EPHEMERIS_TYPE": 0, "CLASSIFICATION_TYPE": "U", "NORAD_CAT_ID": 66827, "ELEMENT_SET_NO": 999, "REV_AT_EPOCH": 307, "BSTAR": -0.0038259843, "MEAN_MOTION_DOT": -0.00584667, "MEAN_MOTION_DDOT": 0}, "tle": {"line1": "1 66827U 25280G   25347.68746863 -.00584667  00000+0 -38260-2 0  9993", "line2": "2 66827  69.9897 196.1265 0006149 289.4107  70.6427 15.77058622  3079"}}, "geometry": {"type": "Point", "coordinates": [178.1064330415343, -37.49953284109262]}}, {"type": "Feature", "properties": {"norad_id": 66828, "name": "STARLINK-35982", "group": "last-30-days", "lat": -33.341006694024, "lon": -179.52896347900975, "alt_km": 344.4485468438661, "timestamp": "2025-12-14T07:33:18.188511+00:00", "meta": {"OBJECT_NAME": "STARLINK-35982", "OBJECT_ID": "2025-280H", "EPOCH": "2025-12-13T14:57:32.980896", "MEAN_MOTION": 15.77283377, "ECCENTRICITY": 0.00048196, "INCLINATION": 69.993, "RA_OF_ASC_NODE": 196.305, "ARG_OF_PERICENTER": 269.5547, "MEAN_ANOMALY": 90.5101, "EPHEMERIS_TYPE": 0, "CLASSIFICATION_TYPE": "U", "NORAD_CAT_ID": 66828, "ELEMENT_SET_NO": 999, "REV_AT_EPOCH": 306, "BSTAR": -0.0038335704, "MEAN_MOTION_DOT": -0.00590837, "MEAN_MOTION_DDOT": 0}, "tle": {"line1": "1 66828U 25280H   25347.62329839 -.00590837  00000+0 -38336-2 0  9998", "line2": "2 66828  69.9930 196.3050 0004819 269.5547  90.5101 15.77283377  3067"}}, "geometry": {"type": "Point", "coordinates": [-179.52896347900975, -33.341006694024]}}, {"type": "Feature", "properties": {"norad_id": 66829, "name": "STARLINK-36084", "group": "last-30-days", "lat": -35.82585937230394, "lon": 179.09366779907015, "alt_km": 346.06986725351453, "timestamp": "2025-12-14T07:33:18.188524+00:00", "meta": {"OBJECT_NAME": "STARLINK-36084", "OBJECT_ID": "2025-280J", "EPOCH": "2025-12-13T16:29:25.173888", "MEAN_MOTION": 15.77023367, "ECCENTRICITY": 0.00039281, "INCLINATION": 69.993, "RA_OF_ASC_NODE": 196.1263, "ARG_OF_PERICENTER": 263.1201, "MEAN_ANOMALY": 96.9552, "EPHEMERIS_TYPE": 0, "CLASSIFICATION_TYPE": "U", "NORAD_CAT_ID": 66829, "ELEMENT_SET_NO": 999, "REV_AT_EPOCH": 307, "BSTAR": -0.0047145763, "MEAN_MOTION_DOT": -0.00708259, "MEAN_MOTION_DDOT": 0}, "tle": {"line1": "1 66829U 25280J   25347.68709692 -.00708259  00000+0 -47146-2 0  9992", "line2": "2 66829  69.9930 196.1263 0003928 263.1201  96.9552 15.77023367  3071"}}, "geometry": {"type": "Point", "coordinates": [179.09366779907015, -35.82585937230394]}}, {"type": "Feature", "properties": {"norad_id": 66830, "name": "STARLINK-35881", "group": "last-30-days", "lat": -53.17660860313697, "lon": 165.2476363697745, "alt_km": 398.31448726751205, "timestamp": "2025-12-14T07:33:18.188534+00:00", "meta": {"OBJECT_NAME": "STARLINK-35881", "OBJECT_ID": "2025-280K", "EPOCH": "2025-12-13T14:57:12.997440", "MEAN_MOTION": 15.72899586, "ECCENTRICITY": 0.00204496, "INCLINATION": 69.9919, "RA_OF_ASC_NODE": 196.3038, "ARG_OF_PERICENTER": 74.0487, "MEAN_ANOMALY": 286.2961, "EPHEMERIS_TYPE": 0, "CLASSIFICATION_TYPE": "U", "NORAD_CAT_ID": 66830, "ELEMENT_SET_NO": 999, "REV_AT_EPOCH": 306, "BSTAR": -0.070632718, "MEAN_MOTION_DOT": -0.07771118, "MEAN_MOTION_DDOT": 0}, "tle": {"line1": "1 66830U 25280K   25347.62306710 -.07771118  00000+0 -70633-1 0  9999", "line2": "2 66830  69.9919 196.3038 0020449  74.0487 286.2961 15.72899586  3060"}}, "geometry": {"type": "Point", "coordinates": [165.2476363697745, -53.17660860313697]}}, {"type": "Feature", "properties": {"norad_id": 66831, "name": "STARLINK-35788", "group": "last-30-days", "lat": -53.27122299944449, "lon": 165.13996783114388, "alt_km": 399.66203355046855, "timestamp": "2025-12-14T07:33:18.188545+00:00", "meta": {"OBJECT_NAME": "STARLINK-35788", "OBJECT_ID": "2025-280L", "EPOCH": "2025-12-13T14:56:46.344768", "MEAN_MOTION": 15.72459416, "ECCENTRICITY": 0.00168784, "INCLINATION": 69.9932, "RA_OF_ASC_NODE": 196.3022, "ARG_OF_PERICENTER": 78.8344, "MEAN_ANOMALY": 281.475, "EPHEMERIS_TYPE": 0, "CLASSIFICATION_TYPE": "U", "NORAD_CAT_ID": 66831, "ELEMENT_SET_NO": 999, "REV_AT_EPOCH": 306, "BSTAR": -0.076984788, "MEAN_MOTION_DOT": -0.08455505, "MEAN_MOTION_DDOT": 0}, "tle": {"line1": "1 66831U 25280L   25347.62275862 -.08455505  00000+0 -76985-1 0  9999", "line2": "2 66831  69.9932 196.3022 0016878  78.8344 281.4750 15.72459416  3061"}}, "geometry": {"type": "Point", "coordinates": [165.13996783114388, -53.27122299944449]}}, {"type": "Feature", "properties": {"norad_id": 66832, "name": "STARLINK-35768", "group": "last-30-days", "lat": -15.999569707385179, "lon": -171.677745093236, "alt_km": 329.8049612633695, "timestamp": "2025-12-14T07:33:18.188555+00:00", "meta": {"OBJECT_NAME": "STARLINK-35768", "OBJECT_ID": "2025-280M", "EPOCH": "2025-12-13T14:55:27.560064", "MEAN_MOTION": 15.80021789, "ECCENTRICITY": 0.00151194, "INCLINATION": 69.9927, "RA_OF_ASC_NODE": 196.2997, "ARG_OF_PERICENTER": 247.1281, "MEAN_ANOMALY": 112.8324, "EPHEMERIS_TYPE": 0, "CLASSIFICATION_TYPE": "U", "NORAD_CAT_ID": 66832, "ELEMENT_SET_NO": 999, "REV_AT_EPOCH": 306, "BSTAR": 0.0077359951, "MEAN_MOTION_DOT": 0.01661345, "MEAN_MOTION_DDOT": 0}, "tle": {"line1": "1 66832U 25280M   25347.62184676  .01661345  00000+0  77360-2 0  9993", "line2": "2 66832  69.9927 196.2997 0015119 247.1281 112.8324 15.80021789  3065"}}, "geometry": {"type": "Point", "coordinates": [-171.677745093236, -15.999569707385179]}}, {"type": "Feature", "properties": {"norad_id": 66833, "name": "STARLINK-35858", "group": "last-30-days", "lat": -24.335949595842507, "lon": -175.1542294781389, "alt_km": 341.106990444061, "timestamp": "2025-12-14T07:33:18.188568+00:00", "meta": {"OBJECT_NAME": "STARLINK-35858", "OBJECT_ID": "2025-280N", "EPOCH": "2025-12-13T07:19:00.808608", "MEAN_MOTION": 15.78368693, "ECCENTRICITY": 0.00051238, "INCLINATION": 69.9935, "RA_OF_ASC_NODE": 197.2021, "ARG_OF_PERICENTER": 320.7844, "MEAN_ANOMALY": 39.2984, "EPHEMERIS_TYPE": 0, "CLASSIFICATION_TYPE": "U", "NORAD_CAT_ID": 66833, "ELEMENT_SET_NO": 999, "REV_AT_EPOCH": 301, "BSTAR": -0.0044392665, "MEAN_MOTION_DOT": -0.00708761, "MEAN_MOTION_DDOT": 0}, "tle": {"line1": "1 66833U 25280N   25347.30487047 -.00708761  00000+0 -44393-2 0  9992", "line2": "2 66833  69.9935 197.2021 0005123 320.7844  39.2984 15.78368693  3015"}}, "geometry": {"type": "Point", "coordinates": [-175.1542294781389, -24.335949595842507]}}, {"type": "Feature", "properties": {"norad_id": 66834, "name": "STARLINK-35840", "group": "last-30-days", "lat": -20.09540468535878, "lon": -173.33896219273151, "alt_km": 341.01676941792994, "timestamp": "2025-12-14T07:33:18.188580+00:00", "meta": {"OBJECT_NAME": "STARLINK-35840", "OBJECT_ID": "2025-280P", "EPOCH": "2025-12-13T02:44:47.131296", "MEAN_MOTION": 15.79224709, "ECCENTRICITY": 0.00037495, "INCLINATION": 69.9897, "RA_OF_ASC_NODE": 197.7403, "ARG_OF_PERICENTER": 276.713, "MEAN_ANOMALY": 83.3644, "EPHEMERIS_TYPE": 0, "CLASSIFICATION_TYPE": "U", "NORAD_CAT_ID": 66834, "ELEMENT_SET_NO": 999, "REV_AT_EPOCH": 298, "BSTAR": -0.0040249271, "MEAN_MOTION_DOT": -0.00670423, "MEAN_MOTION_DDOT": 0}, "tle": {"line1": "1 66834U 25280P   25347.11443439 -.00670423  00000+0 -40249-2 0  9998", "line2": "2 66834  69.9897 197.7403 0003749 276.7130  83.3644 15.79224709  2980"}}, "geometry": {"type": "Point", "coordinates": [-173.33896219273151, -20.09540468535878]}}]}